STARLINK-32260          
1 61522U 24183P   26068.47707408 -.00000350  00000+0  29116-6 0  9996
2 61522  53.1603 143.1540 0001230 111.0230 249.0903 15.30189376 79622
TEVEL2-2                
1 63219U 25052K   26068.64848259  .00020339  00000+0  69428-3 0  9991
2 63219  97.3987 324.7700 0004693 105.7930 254.3828 15.30343745 54855
